CTC2_L_00033016-03
1 65890U 26688SS  26037.47790509  .00000000  00000+0  00000-0 0  9996
2 65890  45.0000 180.0000 0000000   0.0000   0.0000 15.59189987    11
CTC2_L_00033016-04
1 65891U 23524ZD  26037.47790509  .00000000  00000+0  00000-0 0  9993
2 65891  45.0000 180.0000 0000000   0.0000  90.0000 15.59189987    11
CTC2_L_00033017-01
1 65892U 25099IM  26037.47790509  .00000000  00000+0  00000-0 0  9993
2 65892  45.0000 192.0000 0000000   0.0000 192.0000 15.59189987    18
CTC2_L_00033017-02
1 65893U 24035NQ  26037.47790509  .00000000  00000+0  00000-0 0  9993
2 65893  45.0000 192.0000 0000000   0.0000 282.0000 15.59189987    19
CTC2_L_00033017-03
1 65894U 23217UH  26037.47790509  .00000000  00000+0  00000-0 0  9995
2 65894  45.0000 192.0000 0000000   0.0000  12.0000 15.59189987    11
CTC2_L_00033017-04
1 65895U 23091SL  26037.47790509  .00000000  00000+0  00000-0 0  9996
2 65895  45.0000 192.0000 0000000   0.0000 102.0000 15.59189987    12
CTC2_L_00033018-01
1 65896U 26264SU  26037.47790509  .00000000  00000+0  00000-0 0  9992
2 65896  45.0000 204.0000 0000000   0.0000 204.0000 15.59189987    10
CTC2_L_00033018-02
1 65897U 23825EN  26037.47790509  .00000000  00000+0  00000-0 0  9993
2 65897  45.0000 204.0000 0000000   0.0000 294.0000 15.59189987    10
CTC2_L_00033018-03
1 65898U 22945A   26037.47790509  .00000000  00000+0  00000-0 0  9996
2 65898  45.0000 204.0000 0000000   0.0000  24.0000 15.59189987    12
CTC2_L_00033018-04
1 65899U 25725GP  26037.47790509  .00000000  00000+0  00000-0 0  9996
2 65899  45.0000 204.0000 0000000   0.0000 114.0000 15.59189987    13
CTC2_L_00033019-01
1 65900U 23680N   26037.47790509  .00000000  00000+0  00000-0 0  9997
2 65900  45.0000 216.0000 0000000   0.0000 216.0000 15.59189987    12
CTC2_L_00033019-02
1 65901U 26061JH  26037.47790509  .00000000  00000+0  00000-0 0  9994
2 65901  45.0000 216.0000 0000000   0.0000 306.0000 15.59189987    13
CTC2_L_00033019-03
1 65902U 25163MJ  26037.47790509  .00000000  00000+0  00000-0 0  9997
2 65902  45.0000 216.0000 0000000   0.0000  36.0000 15.59189987    14
CTC2_L_00033019-04
1 65903U 26989OG  26037.47790509  .00000000  00000+0  00000-0 0  9995
2 65903  45.0000 216.0000 0000000   0.0000 126.0000 15.59189987    15
CTC2_L_00033020-01
1 65904U 24141XI  26037.47790509  .00000000  00000+0  00000-0 0  9994
2 65904  45.0000 228.0000 0000000   0.0000 228.0000 15.59189987    12
CTC2_L_00033020-02
1 65905U 24314NV  26037.47790509  .00000000  00000+0  00000-0 0  9997
2 65905  45.0000 228.0000 0000000   0.0000 318.0000 15.59189987    13
CTC2_L_00033020-03
1 65906U 24042QS  26037.47790509  .00000000  00000+0  00000-0 0  9996
2 65906  45.0000 228.0000 0000000   0.0000  48.0000 15.59189987    14
CTC2_L_00033020-04
1 65907U 23035VC  26037.47790509  .00000000  00000+0  00000-0 0  9998
2 65907  45.0000 228.0000 0000000   0.0000 138.0000 15.59189987    15
CTC2_L_00033021-01
1 65908U 26883AH  26037.47790509  .00000000  00000+0  00000-0 0  9993
2 65908  45.0000 240.0000 0000000   0.0000 240.0000 15.59189987    14
CTC2_L_00033021-02
1 65909U 23590RB  26037.47790509  .00000000  00000+0  00000-0 0  9996
2 65909  45.0000 240.0000 0000000   0.0000 330.0000 15.59189987    15
CTC2_L_00033021-03
1 65910U 26760O   26037.47790509  .00000000  00000+0  00000-0 0  9990
2 65910  45.0000 240.0000 0000000   0.0000  60.0000 15.59189987    17
CTC2_L_00033021-04
1 65911U 22060NJ  26037.47790509  .00000000  00000+0  00000-0 0  9990
2 65911  45.0000 240.0000 0000000   0.0000 150.0000 15.59189987    18
CTC2_L_00033022-01
1 65912U 22682BB  26037.47790509  .00000000  00000+0  00000-0 0  9991
2 65912  45.0000 252.0000 0000000   0.0000 252.0000 15.59189987    15
CTC2_L_00033022-02
1 65913U 22352VW  26037.47790509  .00000000  00000+0  00000-0 0  9996
2 65913  45.0000 252.0000 0000000   0.0000 342.0000 15.59189987    16
CTC2_L_00033022-03
1 65914U 22358JM  26037.47790509  .00000000  00000+0  00000-0 0  9993
2 65914  45.0000 252.0000 0000000   0.0000  72.0000 15.59189987    17
CTC2_L_00033022-04
1 65915U 24454WB  26037.47790509  .00000000  00000+0  00000-0 0  9993
2 65915  45.0000 252.0000 0000000   0.0000 162.0000 15.59189987    18
CTC2_L_00033023-01
1 65916U 25933VY  26037.47790509  .00000000  00000+0  00000-0 0  9997
2 65916  45.0000 264.0000 0000000   0.0000 264.0000 15.59189987    15
CTC2_L_00033023-02
1 65917U 22131BU  26037.47790509  .00000000  00000+0  00000-0 0  9995
2 65917  45.0000 264.0000 0000000   0.0000 354.0000 15.59189987    16
CTC2_L_00033023-03
1 65918U 25651OM  26037.47790509  .00000000  00000+0  00000-0 0  9996
2 65918  45.0000 264.0000 0000000   0.0000  84.0000 15.59189987    17
CTC2_L_00033023-04
1 65919U 25965SL  26037.47790509  .00000000  00000+0  00000-0 0  9995
2 65919  45.0000 264.0000 0000000   0.0000 174.0000 15.59189987    18
CTC2_L_00033024-01
1 65920U 23935SF  26037.47790509  .00000000  00000+0  00000-0 0  9992
2 65920  45.0000 276.0000 0000000   0.0000 276.0000 15.59189987    16
CTC2_L_00033024-02
1 65921U 26857GL  26037.47790509  .00000000  00000+0  00000-0 0  9999
2 65921  45.0000 276.0000 0000000   0.0000   6.0000 15.59189987    18
CTC2_L_00033024-03
1 65922U 26088OW  26037.47790509  .00000000  00000+0  00000-0 0  9996
2 65922  45.0000 276.0000 0000000   0.0000  96.0000 15.59189987    18
CTC2_L_00033024-04
1 65923U 25108NZ  26037.47790509  .00000000  00000+0  00000-0 0  9999
2 65923  45.0000 276.0000 0000000   0.0000 186.0000 15.59189987    19
CTC2_L_00033025-01
1 65924U 26433HU  26037.47790509  .00000000  00000+0  00000-0 0  9992
2 65924  45.0000 288.0000 0000000   0.0000 288.0000 15.59189987    16
CTC2_L_00033025-02
1 65925U 24177RO  26037.47790509  .00000000  00000+0  00000-0 0  9996
2 65925  45.0000 288.0000 0000000   0.0000  18.0000 15.59189987    18
CTC2_L_00033025-03
1 65926U 25633ZH  26037.47790509  .00000000  00000+0  00000-0 0  9995
2 65926  45.0000 288.0000 0000000   0.0000 108.0000 15.59189987    19
CTC2_L_00033025-04
1 65927U 24491XD  26037.47790509  .00000000  00000+0  00000-0 0  9997
2 65927  45.0000 288.0000 0000000   0.0000 198.0000 15.59189987    19
CTC2_L_00033026-01
1 65928U 25412SG  26037.47790509  .00000000  00000+0  00000-0 0  9992
2 65928  45.0000 300.0000 0000000   0.0000 300.0000 15.59189987    10
CTC2_L_00033026-02
1 65929U 23223FI  26037.47790509  .00000000  00000+0  00000-0 0  9991
2 65929  45.0000 300.0000 0000000   0.0000  30.0000 15.59189987    11
CTC2_L_00033026-03
1 65930U 23533AP  26037.47790509  .00000000  00000+0  00000-0 0  9997
2 65930  45.0000 300.0000 0000000   0.0000 120.0000 15.59189987    13
CTC2_L_00033026-04
1 65931U 23050RT  26037.47790509  .00000000  00000+0  00000-0 0  9992
2 65931  45.0000 300.0000 0000000   0.0000 210.0000 15.59189987    14
CTC2_L_00033027-01
1 65932U 26093UD  26037.47790509  .00000000  00000+0  00000-0 0  9993
2 65932  45.0000 312.0000 0000000   0.0000 312.0000 15.59189987    11
CTC2_L_00033027-02
1 65933U 25254KX  26037.47790509  .00000000  00000+0  00000-0 0  9992
2 65933  45.0000 312.0000 0000000   0.0000  42.0000 15.59189987    12
CTC2_L_00033027-03
1 65934U 26041XZ  26037.47790509  .00000000  00000+0  00000-0 0  9998
2 65934  45.0000 312.0000 0000000   0.0000 132.0000 15.59189987    13
CTC2_L_00033027-04
1 65935U 22839MH  26037.47790509  .00000000  00000+0  00000-0 0  9990
2 65935  45.0000 312.0000 0000000   0.0000 222.0000 15.59189987    14
CTC2_L_00033028-01
1 65936U 25919AD  26037.47790509  .00000000  00000+0  00000-0 0  9993
2 65936  45.0000 324.0000 0000000   0.0000 324.0000 15.59189987    11
CTC2_L_00033028-02
1 65937U 23582CT  26037.47790509  .00000000  00000+0  00000-0 0  9998
2 65937  45.0000 324.0000 0000000   0.0000  54.0000 15.59189987    12
CTC2_L_00033028-03
1 65938U 24736LJ  26037.47790509  .00000000  00000+0  00000-0 0  9991
2 65938  45.0000 324.0000 0000000   0.0000 144.0000 15.59189987    13
CTC2_L_00033028-04
1 65939U 25203LK  26037.47790509  .00000000  00000+0  00000-0 0  9992
2 65939  45.0000 324.0000 0000000   0.0000 234.0000 15.59189987    14
CTC2_L_00033029-01
1 65940U 25315NH  26037.47790509  .00000000  00000+0  00000-0 0  9998
2 65940  45.0000 336.0000 0000000   0.0000 336.0000 15.59189987    12
CTC2_L_00033029-02
1 65941U 24147OQ  26037.47790509  .00000000  00000+0  00000-0 0  9991
2 65941  45.0000 336.0000 0000000   0.0000  66.0000 15.59189987    13
CTC2_L_00033029-03
1 65942U 23850AU  26037.47790509  .00000000  00000+0  00000-0 0  9992
2 65942  45.0000 336.0000 0000000   0.0000 156.0000 15.59189987    14
CTC2_L_00033029-04
1 65943U 26685MT  26037.47790509  .00000000  00000+0  00000-0 0  9992
2 65943  45.0000 336.0000 0000000   0.0000 246.0000 15.59189987    15
CTC2_L_00033030-01
1 65944U 25597AB  26037.47790509  .00000000  00000+0  00000-0 0  9994
2 65944  45.0000 348.0000 0000000   0.0000 348.0000 15.59189987    12
CTC2_L_00033030-02
1 65945U 25549AH  26037.47790509  .00000000  00000+0  00000-0 0  9992
2 65945  45.0000 348.0000 0000000   0.0000  78.0000 15.59189987    13
CTC2_L_00033030-03
1 65946U 23649LP  26037.47790509  .00000000  00000+0  00000-0 0  9992
2 65946  45.0000 348.0000 0000000   0.0000 168.0000 15.59189987    14
CTC2_L_00033030-04
1 65947U 23840HC  26037.47790509  .00000000  00000+0  00000-0 0  9996
2 65947  45.0000 348.0000 0000000   0.0000 258.0000 15.59189987    15
